GLOBALSTAR M040         
1 25622U 99004B   24210.73604837 -.00000078  00000+0  14500-3 0  9994
2 25622  51.9939 322.0095 0001214  80.9547  68.4755 12.61977705174414
GLOBALSTAR M038         
1 25624U 99004D   24210.95060171 -.00000068  00000+0  22391-3 0  9993
2 25624  51.9974 282.4423 0002232 109.4186  61.1064 12.32503823162511
GLOBALSTAR M022         
1 25649U 99012A   24210.96538939 -.00000054  00000+0  39370-3 0  9992
2 25649  52.0045  89.5564 0001738 253.9989 119.1462 12.02485505137495
GLOBALSTAR M046         
1 25651U 99012C   24210.87218377 -.00000012  00000+0  84308-3 0  9991
2 25651  52.0062  51.7452 0002145 350.2127 114.1632 12.09392564144549
GLOBALSTAR M037         
1 25652U 99012D   24210.92222403 -.00000081  00000+0  12440-3 0  9997
2 25652  52.0007  88.5048 0001514 167.8285 306.3121 12.62412952170443
